{
"type": "FeatureCollection",
"name": "camaras_sin_alcaldia",
"crs": { "type": "name", "properties": { "name": "urn:ogc:def:crs:EPSG::32614" } },
"features": [
{ "type": "Feature", "properties": { "id stv": 12752, "calle": "CACALOAC", "esquina / entre calles": "MOXELOTLE", "alcaldia": null, "cve_col": null, "colonia": null, "latitud": 19.313114, "longitud": -99.290495, "__alc": "NONE" }, "geometry": { "type": "Point", "coordinates": [ 469482.972031172655988, 2135498.999556380324066 ] } },
{ "type": "Feature", "properties": { "id stv": 4589, "calle": "CULTURA GRIEGA", "esquina / entre calles": "MERCADERES", "alcaldia": null, "cve_col": null, "colonia": null, "latitud": 19.5126719, "longitud": -99.19652464000001, "__alc": "NONE" }, "geometry": { "type": "Point", "coordinates": [ 479379.941131815314293, 2157566.860337247140706 ] } },
{ "type": "Feature", "properties": { "id stv": 13009, "calle": "CJON CULTURA GRIEGA", "esquina / entre calles": "ENTRE CULTURA GRIEGA Y AV. DE LAS CIVILIZACIONES", "alcaldia": null, "cve_col": null, "colonia": null, "latitud": 19.51198507, "longitud": -99.19452104, "__alc": "NONE" }, "geometry": { "type": "Point", "coordinates": [ 479590.080367337097414, 2157490.619895666372031 ] } },
{ "type": "Feature", "properties": { "id stv": 13192, "calle": "CALLE LA GALICIA", "esquina / entre calles": "CAMINO A SANTIAGO YANCUITLALPAN", "alcaldia": null, "cve_col": null, "colonia": null, "latitud": 19.37703181, "longitud": -99.30157281, "__alc": "NONE" }, "geometry": { "type": "Point", "coordinates": [ 468331.551379865210038, 2142573.695388118270785 ] } },
{ "type": "Feature", "properties": { "id stv": 13197, "calle": "CARR MEXICO TOLUCA", "esquina / entre calles": "CAMINO AL CHINACO", "alcaldia": null, "cve_col": null, "colonia": null, "latitud": 19.29704152, "longitud": -99.34838996000001, "__alc": "NONE" }, "geometry": { "type": "Point", "coordinates": [ 463397.371993065928109, 2133731.745201067533344 ] } },
{ "type": "Feature", "properties": { "id stv": 11381, "calle": "AV INSURGENTES NORTE", "esquina / entre calles": "FRANCISCO J MACIN", "alcaldia": null, "cve_col": null, "colonia": null, "latitud": 19.51116, "longitud": -99.103379, "__alc": "NONE" }, "geometry": { "type": "Point", "coordinates": [ 489153.021652545314282, 2157391.018935250118375 ] } },
{ "type": "Feature", "properties": { "id stv": 2149, "calle": "AV LA VENTISCA", "esquina / entre calles": "BLVD TEMOLUCO", "alcaldia": null, "cve_col": null, "colonia": null, "latitud": 19.52799702, "longitud": -99.15700781, "__alc": "NONE" }, "geometry": { "type": "Point", "coordinates": [ 483527.748304438020568, 2159258.379725622478873 ] } },
{ "type": "Feature", "properties": { "id stv": 6937, "calle": "(HEDRON) EL MIRADOR", "esquina / entre calles": "PLAN SAGITARIO", "alcaldia": null, "cve_col": null, "colonia": null, "latitud": 19.54645989, "longitud": -99.12236522000001, "__alc": "NONE" }, "geometry": { "type": "Point", "coordinates": [ 487163.690566485107411, 2161298.417224698700011 ] } },
{ "type": "Feature", "properties": { "id stv": 7793, "calle": "AV NORTE", "esquina / entre calles": "SIETE", "alcaldia": null, "cve_col": null, "colonia": null, "latitud": 19.40923441, "longitud": -99.05726062, "__alc": "NONE" }, "geometry": { "type": "Point", "coordinates": [ 493988.21111534209922, 2146110.341097091790289 ] } },
{ "type": "Feature", "properties": { "id stv": 11408, "calle": "ANILLO PERIFERICO (CALLE 7)", "esquina / entre calles": "ENTRE AV PUEBLA Y PRIV DEL VALLE", "alcaldia": null, "cve_col": null, "colonia": null, "latitud": 19.40137519, "longitud": -99.05811219, "__alc": "NONE" }, "geometry": { "type": "Point", "coordinates": [ 493898.511755734856706, 2145240.726906660012901 ] } },
{ "type": "Feature", "properties": { "id stv": 15250, "calle": "AV TEXCOCO", "esquina / entre calles": "AV REPUBLICA FEDERAL DEL NORTE", "alcaldia": null, "cve_col": null, "colonia": null, "latitud": 19.378224, "longitud": -99.010075, "__alc": "NONE" }, "geometry": { "type": "Point", "coordinates": [ 498942.026161597575992, 2142677.993076183367521 ] } },
{ "type": "Feature", "properties": { "id stv": 13383, "calle": "CARR PICACHO AJUSCO", "esquina / entre calles": "PARQUE EJIDAL SAN NICOLAS TOTOLAPAN", "alcaldia": null, "cve_col": null, "colonia": null, "latitud": 19.25365499, "longitud": -99.24479446, "__alc": "NONE" }, "geometry": { "type": "Point", "coordinates": [ 474274.638963485194836, 2128912.324224186129868 ] } },
{ "type": "Feature", "properties": { "id stv": 13384, "calle": "EMILIO CARRANZA", "esquina / entre calles": "ARCO DE ACCESO A 1ER DINAMO", "alcaldia": null, "cve_col": null, "colonia": null, "latitud": 19.2875492, "longitud": -99.26420612, "__alc": "NONE" }, "geometry": { "type": "Point", "coordinates": [ 472240.371385154896416, 2132665.773409015033394 ] } },
{ "type": "Feature", "properties": { "id stv": 13884, "calle": "AV INDUSTRIA MILITAR", "esquina / entre calles": "AV FUENTE DE TECAMACHALCO", "alcaldia": null, "cve_col": null, "colonia": null, "latitud": 19.43122802, "longitud": -99.22655692, "__alc": "NONE" }, "geometry": { "type": "Point", "coordinates": [ 476216.957382973749191, 2148558.641473604366183 ] } },
{ "type": "Feature", "properties": { "id stv": 16431, "calle": "CAMINO AL TLALTENAMIC", "esquina / entre calles": "ENTRE VICENTE GUERRERO Y PARAJE CHICHILECA", "alcaldia": null, "cve_col": null, "colonia": null, "latitud": 19.169393, "longitud": -99.068136, "__alc": "NONE" }, "geometry": { "type": "Point", "coordinates": [ 492835.97984183114022, 2119571.984052157495171 ] } },
{ "type": "Feature", "properties": { "id stv": 16433, "calle": "CARR FEDERAL MEXICO OAXTEPEC", "esquina / entre calles": "CAMINO A SANTA ANA TLACOTENCO", "alcaldia": null, "cve_col": null, "colonia": null, "latitud": 19.143936, "longitud": -98.971843, "__alc": "NONE" }, "geometry": { "type": "Point", "coordinates": [ 502960.963886270299554, 2116754.01522415317595 ] } },
{ "type": "Feature", "properties": { "id stv": 16442, "calle": "CARR FEDERAL MEXICO OAXTEPEC", "esquina / entre calles": "MIRADOR SANTA ANA", "alcaldia": null, "cve_col": null, "colonia": null, "latitud": 19.162049, "longitud": -98.990613, "__alc": "NONE" }, "geometry": { "type": "Point", "coordinates": [ 500987.020415486360434, 2118757.999871546402574 ] } },
{ "type": "Feature", "properties": { "id stv": 16681, "calle": "AV CUAUHTEMOC", "esquina / entre calles": "PROL NIÑOS HEROES", "alcaldia": null, "cve_col": null, "colonia": null, "latitud": 19.186733, "longitud": -99.051297, "__alc": "NONE" }, "geometry": { "type": "Point", "coordinates": [ 494607.046743049460929, 2121490.048505333717912 ] } },
{ "type": "Feature", "properties": { "id stv": 7458, "calle": "MAR DE LA FECUNDIDAD", "esquina / entre calles": "CIRCO ARSAQUEL", "alcaldia": null, "cve_col": null, "colonia": null, "latitud": 19.283769, "longitud": -98.990653, "__alc": "NONE" }, "geometry": { "type": "Point", "coordinates": [ 500982.091104578517843, 2132226.375026844441891 ] } },
{ "type": "Feature", "properties": { "id stv": 16527, "calle": "CIRCO ARSAQUEL", "esquina / entre calles": "MAR DE LAS LLUVIAS", "alcaldia": null, "cve_col": null, "colonia": null, "latitud": 19.288492, "longitud": -98.989854, "__alc": "NONE" }, "geometry": { "type": "Point", "coordinates": [ 501066.011624504695646, 2132748.985526973381639 ] } },
{ "type": "Feature", "properties": { "id stv": 3655, "calle": "PASEO DE LAS BUGAMBILIAS", "esquina / entre calles": "FFCC DE CUERNAVACA", "alcaldia": null, "cve_col": null, "colonia": null, "latitud": 19.262426, "longitud": -99.20779, "__alc": "NONE" }, "geometry": { "type": "Point", "coordinates": [ 478164.599767391278874, 2129877.784684588667005 ] } },
{ "type": "Feature", "properties": { "id stv": 13374, "calle": "OYAMEL", "esquina / entre calles": "ESPERANZA", "alcaldia": null, "cve_col": null, "colonia": null, "latitud": 19.25709159, "longitud": -99.18565282, "__alc": "NONE" }, "geometry": { "type": "Point", "coordinates": [ 480490.238672835170291, 2129284.889978757593781 ] } },
{ "type": "Feature", "properties": { "id stv": 15159, "calle": "PASEO GIRASOL", "esquina / entre calles": "PASEO DE LAS BUGAMBILIAS", "alcaldia": null, "cve_col": null, "colonia": null, "latitud": 19.263787, "longitud": -99.204486, "__alc": "NONE" }, "geometry": { "type": "Point", "coordinates": [ 478511.975724866904784, 2130027.969300815369934 ] } },
{ "type": "Feature", "properties": { "id stv": 12739, "calle": "CIRCUITO SOLIDARIDAD", "esquina / entre calles": "ENTRE MISPEROS Y BOSQUE ZONA ECOLOGICA", "alcaldia": null, "cve_col": null, "colonia": null, "latitud": 19.262869, "longitud": -99.232177, "__alc": "NONE" }, "geometry": { "type": "Point", "coordinates": [ 475601.971805291366763, 2129930.049327899236232 ] } },
{ "type": "Feature", "properties": { "id stv": 14852, "calle": "CARRET FED A CUERNAVACA (KM 36)", "esquina / entre calles": "ENTRE TORDILLO DE MENDOZA Y MIGUEL HIDALGO", "alcaldia": null, "cve_col": null, "colonia": null, "latitud": 19.15682099, "longitud": -99.16234389, "__alc": "NONE" }, "geometry": { "type": "Point", "coordinates": [ 482929.375493259984069, 2118187.431763287633657 ] } },
{ "type": "Feature", "properties": { "id stv": 15148, "calle": "CARR PICACHO AJUSCO", "esquina / entre calles": "ENTRADA A PARQUE DE AVENTURAS GOTCHAMANIA", "alcaldia": null, "cve_col": null, "colonia": null, "latitud": 19.26321891, "longitud": -99.2403117, "__alc": "NONE" }, "geometry": { "type": "Point", "coordinates": [ 474747.196774365846068, 2129969.930274832062423 ] } },
{ "type": "Feature", "properties": { "id stv": 15149, "calle": "CARR PICACHO AJUSCO", "esquina / entre calles": "ENTRADA A EL PARQUE TEPOZAN", "alcaldia": null, "cve_col": null, "colonia": null, "latitud": 19.25796401, "longitud": -99.2404495, "__alc": "NONE" }, "geometry": { "type": "Point", "coordinates": [ 474731.911257449712139, 2129388.48673845641315 ] } },
{ "type": "Feature", "properties": { "id stv": 15162, "calle": "CARR MEXICO CUERNAVACA (KM 37)", "esquina / entre calles": "ENTRE MIGUEL HIDALGO Y CICLOPISTA FFCC DE\nCUERNAVACA", "alcaldia": null, "cve_col": null, "colonia": null, "latitud": 19.151293, "longitud": -99.16491, "__alc": "NONE" }, "geometry": { "type": "Point", "coordinates": [ 482658.968195604742505, 2117576.012528692837805 ] } },
{ "type": "Feature", "properties": { "id stv": 15163, "calle": "CARR MEXICO CUERNAVACA (KM 45)", "esquina / entre calles": "ENTRE CAMINO EL CAPULIN Y LAURELES", "alcaldia": null, "cve_col": null, "colonia": null, "latitud": 19.09972811, "longitud": -99.20885702, "__alc": "NONE" }, "geometry": { "type": "Point", "coordinates": [ 478030.911541132780258, 2111875.308720914181322 ] } },
{ "type": "Feature", "properties": { "id stv": 15164, "calle": "CARR MEXICO CUERNAVACA", "esquina / entre calles": "ENTRE CAMINO A LA CIMA II Y CAMINO EL CAPULIN", "alcaldia": null, "cve_col": null, "colonia": null, "latitud": 19.10581895, "longitud": -99.19778626, "__alc": "NONE" }, "geometry": { "type": "Point", "coordinates": [ 479196.179103121277876, 2112547.90521644288674 ] } },
{ "type": "Feature", "properties": { "id stv": 15167, "calle": "CARR MEXICO CUERNAVACA", "esquina / entre calles": "ENTRE CICLOPISTA FFCC DE CUERNAVACA Y LAURELES", "alcaldia": null, "cve_col": null, "colonia": null, "latitud": 19.12336914, "longitud": -99.18392924, "__alc": "NONE" }, "geometry": { "type": "Point", "coordinates": [ 480655.752313163597137, 2114488.237845062743872 ] } },
{ "type": "Feature", "properties": { "id stv": 15178, "calle": "ANTIGUO CAMINO A CUERNAVACA", "esquina / entre calles": "PRIV TLAYELPA", "alcaldia": null, "cve_col": null, "colonia": null, "latitud": 19.18944087, "longitud": -99.15017892, "__alc": "NONE" }, "geometry": { "type": "Point", "coordinates": [ 484211.643929145240691, 2121795.682221666909754 ] } },
{ "type": "Feature", "properties": { "id stv": 16902, "calle": "CARR FED A CUERNAVACA", "esquina / entre calles": "ENTRE SAN MIGUEL Y MIGUEL HIDALGO", "alcaldia": null, "cve_col": null, "colonia": null, "latitud": 19.16236475, "longitud": -99.16145939, "__alc": "NONE" }, "geometry": { "type": "Point", "coordinates": [ 483022.949091285816394, 2118800.762864506337792 ] } },
{ "type": "Feature", "properties": { "id stv": 16887, "calle": "CARR A OAXTEPEC", "esquina / entre calles": "ENTRE LA HERRADURA Y TEXAXAHUALLI", "alcaldia": null, "cve_col": null, "colonia": null, "latitud": 19.236311, "longitud": -99.05412, "__alc": "NONE" }, "geometry": { "type": "Point", "coordinates": [ 494311.964292900462169, 2126975.96235559694469 ] } },
{ "type": "Feature", "properties": { "id stv": 16899, "calle": "CARR LIBRE MEXICO CUERNAVACA", "esquina / entre calles": "ENTRE CALVARIO Y HUITZILTEPEC", "alcaldia": null, "cve_col": null, "colonia": null, "latitud": 19.220353, "longitud": -99.149148, "__alc": "NONE" }, "geometry": { "type": "Point", "coordinates": [ 484322.95396090723807, 2125216.033305902965367 ] } }
]
}
